[{"OBJECT_NAME":"STARLINK-33968","OBJECT_ID":"2025-094V","EPOCH":"2026-03-09T20:31:38.371872","MEAN_MOTION":14.9833437,"ECCENTRICITY":0.00030077,"INCLINATION":70.0024,"RA_OF_ASC_NODE":234.2086,"ARG_OF_PERICENTER":268.4679,"MEAN_ANOMALY":91.6135,"EPHEMERIS_TYPE":0,"CLASSIFICATION_TYPE":"U","NORAD_CAT_ID":63883,"ELEMENT_SET_NO":999,"REV_AT_EPOCH":4722,"BSTAR":0.0003243282,"MEAN_MOTION_DOT":3.779e-5,"MEAN_MOTION_DDOT":0},{"OBJECT_NAME":"DELTA 1 DEB","OBJECT_ID":"1972-058EG","EPOCH":"2026-03-09T15:29:57.375744","MEAN_MOTION":14.93143945,"ECCENTRICITY":0.0071537,"INCLINATION":98.4418,"RA_OF_ASC_NODE":299.7647,"ARG_OF_PERICENTER":185.1751,"MEAN_ANOMALY":174.8735,"EPHEMERIS_TYPE":0,"CLASSIFICATION_TYPE":"U","NORAD_CAT_ID":8314,"ELEMENT_SET_NO":999,"REV_AT_EPOCH":83297,"BSTAR":0.00043799,"MEAN_MOTION_DOT":4.734e-5,"MEAN_MOTION_DDOT":0}]
